{
  "norad_id": 68567,
  "name": "STARLINK-37261",
  "history": [
    {
      "epoch": "2026-04-09T20:00:01.999008Z",
      "apogee_km": 269.9978115032254,
      "perigee_km": 269.01130149623987,
      "latitude_deg": -16.246312172629832,
      "longitude_deg": 78.1258453065269,
      "height_km": 273.79107158949944,
      "semi_major_axis_km": 6647.641556499732,
      "eccentricity": 7.42e-05,
      "inclination_deg": 53.1585,
      "raan_deg": 228.7481,
      "arg_perigee_deg": 54.9108,
      "mean_anomaly_deg": 284.8564,
      "mean_motion_rev_day": 16.01774483
    }
  ]
}