STARLINK-37261          
1 68567U 26070AB  26099.83335647 -.01070081  38284-3 -18375-2 0  9995
2 68567  53.1585 228.7481 0000742  54.9108 284.8564 16.01774483  2384
